FENGYUN 1C DEB          
1 30886U 99025AXY 26204.04752916  .00001919  00000+0  84909-3 0  9990
2 30886  99.1993 112.2330 0034901 117.8774 242.5946 14.24141225995596
FENGYUN 1C DEB          
1 30887U 99025AXZ 26204.13050526  .00001263  00000+0  24309-3 0  9999
2 30887  98.3403 261.8062 0259498 332.2956  26.4608 14.46207922 13341
FENGYUN 1C DEB          
1 30888U 99025AYA 26204.01825716  .00013171  00000+0  10045-2 0  9990
2 30888  99.4814 235.0867 0072159 159.2014 201.2167 15.00123510 32430
FENGYUN 1C DEB          
1 30891U 99025AYD 26204.09375424  .00000293  00000+0  20107-3 0  9990
2 30891  98.7561 249.7058 0053943 283.8033 104.1526 14.06300966991075
FENGYUN 1C DEB          
1 30892U 99025AYE 26204.18068744  .00000522  00000+0  27200-3 0  9991
2 30892  99.6867 172.6157 0037221 290.4082  69.3095 14.19291059674581
FENGYUN 1C DEB          
1 30893U 99025AYF 26200.29413162  .00000479  00000+0  26160-3 0  9993
2 30893  98.2418 209.6059 0306227 199.9286 179.3568 13.94671029979312
FENGYUN 1C DEB          
1 30895U 99025AYH 26204.18510808  .00000994  00000+0  30121-3 0  9996
2 30895  98.6952 278.5012 0215935 189.8246 198.1066 14.31997658  9704
FENGYUN 1C DEB          
1 30899U 99025AYM 26203.57735334  .00004001  00000+0  14101-2 0  9997
2 30899  99.1683 119.6055 0033149   6.7333 117.2319 14.35090945998354
FENGYUN 1C DEB          
1 30902U 99025AYQ 26182.29664829  .00004067  00000+0  15241-2 0  9995
2 30902 100.2599 194.6569 0093045  82.8149 278.3595 14.30004265743597
FENGYUN 1C DEB          
1 30903U 99025AYR 26202.48172706  .00000211  00000+0  17575-3 0  9998
2 30903  99.3456  97.2687 0095281 212.0552 147.4793 13.97694656717886
FENGYUN 1C DEB          
1 30905U 99025AYT 26203.95799089  .00003080  00000+0  14665-2 0  9995
2 30905  98.8803 284.6352 0057473 165.1353 195.1528 14.19216589992732
FENGYUN 1C DEB          
1 30907U 99025AYV 26203.95358509  .00000911  00000+0  48422-3 0  9994
2 30907  99.9329 254.3372 0055466 246.0073 113.5284 14.15775860 46936
FENGYUN 1C DEB          
1 30912U 99025AZA 26204.13489084  .00013153  00000+0  11626-2 0  9991
2 30912  98.9764  81.7759 0053509 104.1900 256.5269 14.95382079 27196
FENGYUN 1C DEB          
1 30913U 99025AZB 26203.92267705  .00000894  00000+0  57253-3 0  9997
2 30913  98.7270 227.7166 0046394 277.9834  81.6071 14.05359883990386
FENGYUN 1C DEB          
1 30914U 99025AZC 26185.37680361  .00000557  00000+0  93567-3 0  9997
2 30914  99.9813  61.5228 0502410 246.8739 107.8684 13.09444054617409
FENGYUN 1C DEB          
1 30915U 99025AZD 26202.45958440  .00002450  00000+0  10214-2 0  9994
2 30915  98.9337 287.9208 0050199 245.5244 114.0695 14.26550897996585
FENGYUN 1C DEB          
1 30916U 99025AZE 26203.66630650  .00000832  00000+0  49160-3 0  9994
2 30916  98.9790 268.5044 0063406 358.6456 152.9143 14.09580248989695
FENGYUN 1C DEB          
1 30918U 99025AZG 26204.25312443  .00001388  00000+0  91511-3 0  9993
2 30918  98.4222 302.9340 0156355 221.2613 166.0048 13.97485655981605
FENGYUN 1C DEB          
1 30920U 99025AZJ 26201.62220289  .00003625  00000+0  16475-2 0  9991
2 30920  98.9137 348.9097 0109405 188.5554 171.3759 14.19275917982107
FENGYUN 1C DEB          
1 30921U 99025AZK 26204.25898072  .00003377  00000+0  12061-2 0  9996
2 30921  98.8395 301.5379 0019605 105.8859 279.3972 14.34696513    16
FENGYUN 1C DEB          
1 30922U 99025AZL 26204.31957682  .00000797  00000+0  40945-3 0  9993
2 30922  98.6299 218.9963 0015092 126.2831 246.6796 14.17995944997186
FENGYUN 1C DEB          
1 30925U 99025AZP 26203.34482624  .00006063  00000+0  16870-2 0  9998
2 30925  98.8930 350.3210 0029620 294.3200  96.3838 14.46520486  2684
FENGYUN 1C DEB          
1 30926U 99025AZQ 26203.85669525  .00006394  00000+0  50359-3 0  9990
2 30926  98.8260 175.4000 0159664  26.9458 333.9937 14.91657733 40767
FENGYUN 1C DEB          
1 30927U 99025AZR 26204.15561945  .00001702  00000+0  94273-3 0  9993
2 30927  99.1707 273.8569 0099576 105.0581 256.1633 14.10166615988172
FENGYUN 1C DEB          
1 30928U 99025AZS 26204.13634925  .00001416  00000+0  20175-2 0  9992
2 30928  98.8707 265.7642 0452293 209.3196 178.0818 13.22665897932882
FENGYUN 1C DEB          
1 30930U 99025AZU 26202.03074106  .00000570  00000+0  18974-3 0  9996
2 30930  98.1948 225.3754 0108343 162.9398 228.0052 14.37887053 14887
FENGYUN 1C DEB          
1 30931U 99025AZV 26204.13207870  .00000876  00000+0  58157-3 0  9992
2 30931  99.1472 267.5449 0093787 146.2802 244.2113 14.01959610990410
FENGYUN 1C DEB          
1 30932U 99025AZW 26204.30515167  .00004828  00000+0  18819-2 0  9994
2 30932  98.9101 146.7602 0059045   7.7092 352.4983 14.29210993995716
FENGYUN 1C DEB          
1 30933U 99025AZX 26204.26227845  .00011734  00000+0  34857-2 0  9997
2 30933  99.0534 204.2176 0071619  29.0554  92.6821 14.41892019990736
FENGYUN 1C DEB          
1 30934U 99025AZY 26203.30899300  .00000933  00000+0  11226-2 0  9997
2 30934  98.7506  58.1613 0337440 236.9002 119.9323 13.47419259946915
FENGYUN 1C DEB          
1 30936U 99025BAA 26204.06677959  .00000661  00000+0  30398-3 0  9997
2 30936  98.5592 234.1535 0046450   5.4767  49.8069 14.23829926  2961
FENGYUN 1C DEB          
1 30937U 99025BAB 26204.10776190 -.00000055  00000+0 -81872-5 0  9994
2 30937  99.0576 257.9822 0075432 163.3905 227.8132 13.95644685988183
FENGYUN 1C DEB          
1 30938U 99025BAC 26204.01769838  .00000487  00000+0  24549-3 0  9999
2 30938  98.5827 215.9581 0047297  60.6557 354.2040 14.20131181  2746
FENGYUN 1C DEB          
1 30940U 99025BAE 26203.45264874  .00000549  00000+0  34046-3 0  9991
2 30940  98.6296 199.2009 0042283  93.7033  60.8369 14.08616083992539
FENGYUN 1C DEB          
1 30941U 99025BAF 26201.07319190  .00001958  00000+0  72716-3 0  9991
2 30941  98.5366  59.5663 0034139  29.1981 331.1103 14.32943250997651
FENGYUN 1C DEB          
1 30942U 99025BAG 26203.94725593  .00000272  00000+0  14833-3 0  9992
2 30942  98.6873 201.3557 0136310 190.3236 199.7518 14.15063573997877
FENGYUN 1C DEB          
1 30943U 99025BAH 26197.25110861  .00000460  00000+0  31075-3 0  9991
2 30943  98.7889 209.4389 0049864 179.8567 180.2623 14.04672848987672
FENGYUN 1C DEB          
1 30944U 99025BAJ 26204.15434027  .00000672  00000+0  15369-3 0  9996
2 30944  98.8228 276.6087 0148390 146.9461 245.6652 14.52754868 22814
FENGYUN 1C DEB          
1 30945U 99025BAK 26204.04548024  .00002683  00000+0  10247-2 0  9991
2 30945  99.3808 235.2245 0031390 118.5055 297.2559 14.31402049996162
FENGYUN 1C DEB          
1 30946U 99025BAL 26204.32309345  .00001694  00000+0  43867-3 0  9990
2 30946  99.0629 340.3780 0086823 247.7918 141.6974 14.49132727 15580
FENGYUN 1C DEB          
1 30947U 99025BAM 26202.16843573  .00000425  00000+0  14766-3 0  9994
2 30947  98.7876 102.2025 0095591 315.8371  43.5212 14.38403268 16574
FENGYUN 1C DEB          
1 30949U 99025BAP 26202.96807243  .00000307  00000+0  17121-3 0  9995
2 30949  98.7086 196.6928 0117778  38.4698 347.6276 14.14238267996439
FENGYUN 1C DEB          
1 30954U 99025BAU 26204.25079624  .00001226  00000+0  59998-3 0  9998
2 30954  98.7154 304.3278 0125068 270.7691 115.7118 14.15734042995354
FENGYUN 1C DEB          
1 30956U 99025BAW 26204.09131956  .00001226  00000+0  64800-3 0  9997
2 30956  98.7393 238.6277 0051216  68.9798 315.8745 14.14931201994518
FENGYUN 1C DEB          
1 30959U 99025BAZ 26200.16935639  .00002459  00000+0  77635-3 0  9993
2 30959  99.7012 182.0995 0047120 300.2697  59.3829 14.40712150635286
FENGYUN 1C DEB          
1 30960U 99025BBA 26204.21402497  .00005763  00000+0  73715-3 0  9992
2 30960  99.0231 347.9574 0185588 193.7154 165.8969 14.70422162 19416
FENGYUN 1C DEB          
1 30964U 99025BBE 26175.12561521  .00002033  00000+0  12615-2 0  9995
2 30964  98.6811 137.8112 0141255  56.4289   3.5576 14.01333164981035
FENGYUN 1C DEB          
1 30967U 99025BBH 26203.83853788  .00002445  00000+0  50515-3 0  9996
2 30967  98.7846 167.2643 0091919 280.8828  78.2036 14.58785149 22421
FENGYUN 1C DEB          
1 30971U 99025BBM 26203.44758396  .00002542  00000+0  33087-3 0  9990
2 30971  99.1839 281.3474 0159004 225.5521 196.1477 14.73321886 29796
FENGYUN 1C DEB          
1 30978U 99025BBU 26201.85372975  .00001599  00000+0  52716-3 0  9996
2 30978  98.2311 240.2775 0037322 276.8496  82.8447 14.39024038 16047
FENGYUN 1C DEB          
1 30979U 99025BBV 26201.99270987  .00003240  00000+0  30942-3 0  9994
2 30979  97.8105 100.1888 0178874 243.5390 129.8024 14.82702397 23821
FENGYUN 1C DEB          
1 30982U 99025BBY 26204.23910007  .00001042  00000+0  22230-3 0  9991
2 30982  98.2320 194.8044 0179795 348.3605  23.2186 14.51506594742819
FENGYUN 1C DEB          
1 30984U 99025BCA 26202.33803054  .00002083  00000+0  47795-3 0  9994
2 30984  98.2412 239.6074 0126051  50.7923 310.4385 14.51802316983638
FENGYUN 1C DEB          
1 30988U 99025BCE 26204.25027699  .00224219  00000+0  17851-2 0  9990
2 30988  98.5444 195.4557 0036510 267.9407  91.7670 15.69628443 29751
FENGYUN 1C DEB          
1 30989U 99025BCF 26202.65547189  .00001663  00000+0  84938-3 0  9991
2 30989  99.0423 284.0618 0089436 192.7138 167.1779 14.14987024991117
FENGYUN 1C DEB          
1 30993U 99025BCK 26203.74787282  .00003730  00000+0  12533-2 0  9995
2 30993  98.8461 307.1704 0018423  86.2146  74.8215 14.37703419  1084
FENGYUN 1C DEB          
1 30994U 99025BCL 26204.28587724  .00000156  00000+0  10896-3 0  9995
2 30994  98.6973 211.0470 0016496 265.0564  94.8725 14.11893535997255
FENGYUN 1C DEB          
1 30996U 99025BCN 26203.71676068  .00001440  00000+0  50057-3 0  9994
2 30996  98.9370 121.8726 0050638   0.3549  29.4779 14.36399799  7471
FENGYUN 1C DEB          
1 30998U 99025BCQ 26202.75923751  .00007021  00000+0  17574-2 0  9990
2 30998  98.8244 301.6274 0011632 232.6267 279.1082 14.51724897  3785
FENGYUN 1C DEB          
1 30999U 99025BCR 26204.26813561  .00001497  00000+0  29944-3 0  9992
2 30999  99.0939  44.1684 0111288  22.7137 337.8930 14.59765293 20625
